ZHUHAI-1 02 (CAS-4B)    
1 42759U 17034B   23142.18476317  .00012776  00000+0  64366-3 0  9991
2 42759  43.0156 260.1940 0011880 292.3888  67.5701 15.17037369327682
ZHUHAI-1 01 (CAS-4A)    
1 42761U 17034D   23141.80591866  .00010164  00000+0  51445-3 0  9992
2 42761  43.0154 260.8317 0012745 291.4508  68.4980 15.17043732327633
MAX VALIER SAT          
1 42778U 17036P   23141.82089180  .00024911  00000+0  67301-3 0  9998
2 42778  97.1570 177.3064 0008841 180.6046 179.5190 15.37692908328671
RADFXSAT (FOX-1B)       
1 43017U 17073E   23141.65399668  .00006550  00000+0  45996-3 0  9997
2 43017  97.6338  27.0463 0235118 156.5264 204.6898 14.85731775297243
FOX-1D (AO-92)          
1 43137U 18004AC  23141.77678686  .00035345  00000+0  76579-3 0  9993
2 43137  97.3293 220.7171 0005563 217.7385 142.3474 15.44337812298232
DIWATA-2B               
1 43678U 18084H   23142.19153002  .00001738  00000+0  17140-3 0  9996
2 43678  98.0194 285.6444 0008371 243.9034 116.1324 14.93346237248383
ES'HAIL 2               
1 43700U 18090A   23141.89632741  .00000147  00000+0  00000+0 0  9993
2 43700   0.0173 321.3476 0001225 127.6463 138.7344  1.00270296 16422
FOX-1CLIFF (AO-95)      
1 43770U 18099N   23141.73723922  .00005788  00000+0  47419-3 0  9999
2 43770  97.5771 203.9899 0010985 213.2579 146.7955 14.99608179243641
ITASAT 1                
1 43786U 18099AE  23141.86750682  .00005731  00000+0  47307-3 0  9997
2 43786  97.5795 205.1484 0012503 200.7716 159.3000 14.99314000243705
JY1SAT (JO-97)          
1 43803U 18099AX  23141.91106453  .00006925  00000+0  55256-3 0  9992
2 43803  97.5689 205.1604 0012373 181.3126 178.8068 15.00544961243754
UWE-4                   
1 43880U 18111E   23141.70980793  .00006161  00000+0  47455-3 0  9990
2 43880  97.6350  47.3149 0015504 261.7576  98.1890 15.01908255240391
NEXUS (FO-99)           
1 43937U 19003F   23142.04522170  .00067830  00000+0  11877-2 0  9991
2 43937  97.0880 169.6219 0012088  23.5157 336.6646 15.50295852241997
JAISAT-1                
1 44419U 19038F   23141.73348997  .00024509  00000+0  86455-3 0  9994
2 44419  97.6732 122.6003 0016443  44.2786 315.9765 15.29120200214499
DUCHIFAT-3              
1 44854U 19089C   23142.01898100  .00008978  00000+0  61029-3 0  9993
2 44854  36.9620 247.6339 0008242 104.5764 255.5894 15.05882600188897
CAS-6 (TIANQIN 1)       
1 44881U 19093C   23142.17638002  .00001331  00000+0  17206-3 0  9992
2 44881  97.8616 221.0706 0015316 158.0416 202.1457 14.82481462184940
RS-44 & BREEZE-KM R/B   
1 44909U 19096E   23141.87488495  .00000016  00000+0  26711-4 0  9992
2 44909  82.5237   5.4332 0216395 248.4186 109.3734 12.79720633158798
BY70-2                  
1 45857U 20042B   23142.15393709  .00023198  00000+0  24286-2 0  9992
2 45857  97.9248 221.9823 0010222  99.7883 260.4489 14.89562380155660
SALSAT                  
1 46495U 20068K   23141.77137486  .00004733  00000+0  31527-3 0  9995
2 46495  97.7694  89.5031 0014727 203.1632 156.8933 15.07514105145099
RADFXSAT-2 (AO-109)     
1 47311U 21002C   23141.52993477  .00022754  00000+0  61245-3 0  9998
2 47311  60.6790 160.9193 0016587 159.9273 200.2477 15.37738148130191
UVSQ-SAT                
1 47438U 21006AB  23142.09610376  .00017037  00000+0  71157-3 0  9990
2 47438  97.3857 199.5908 0010779 165.8614 194.2927 15.23650455128677
DIY-1 (ARDUIQUBE)       
1 47963U 21022AH  23141.96745617  .00196316  00000+0  31632-2 0  9994
2 47963  97.4980  49.2772 0010038  68.9935 291.2390 15.52187858118513
XW-3 (CAS-9)            
1 50466U 21131B   23142.16279143  .00000738  00000+0  25394-3 0  9997
2 50466  98.5515 223.7890 0003817 201.3963 158.7065 14.38889170 73618
TEVEL-3                 
1 50988U 22002E   23142.12314796  .00021169  00000+0  87029-3 0  9998
2 50988  97.4342 209.2835 0006410 332.5922  27.4976 15.24173256 74795
TEVEL-8                 
1 50989U 22002F   23142.14077745  .00021591  00000+0  88925-3 0  9996
2 50989  97.4357 209.3574 0006475 330.8248  29.2626 15.24107351 74791
TEVEL-5                 
1 50998U 22002Q   23142.14710542  .00022271  00000+0  89395-3 0  9993
2 50998  97.4334 209.6610 0007535 324.0641  36.0089 15.24959954 74827
TEVEL-6                 
1 50999U 22002R   23142.14562619  .00022389  00000+0  89865-3 0  9996
2 50999  97.4332 209.6546 0007542 323.7773  36.2953 15.24959669 74829
TEVEL-1                 
1 51013U 22002AF  23142.13217976  .00021431  00000+0  88217-3 0  9993
2 51013  97.4336 209.2392 0006348 331.7293  28.3599 15.24128801 74795
TEVEL-7                 
1 51062U 22002CG  23142.14205886  .00021560  00000+0  88759-3 0  9999
2 51062  97.4352 209.3326 0006425 330.0978  29.9892 15.24122798 74795
TEVEL-4                 
1 51063U 22002CH  23142.14728728  .00021204  00000+0  87427-3 0  9991
2 51063  97.4352 209.3233 0006428 330.3195  29.7677 15.24074414 74790
TEVEL-2                 
1 51069U 22002CP  23142.12499902  .00021445  00000+0  88157-3 0  9992
2 51069  97.4338 209.2579 0006370 332.0874  28.0020 15.24173591 74791
GREENCUBE               
1 53106U 22080B   23139.88081682 -.00000003  00000+0  00000+0 0  9998
2 53106  70.1627 329.5611 0008345 191.2921 168.7552  6.42557176 19931
RS29S (SXC3-2110 CYCLO*)
1 53373U 22096D   23142.18219954  .00036403  00000+0  98782-3 0  9993
2 53373  97.4159  48.2065 0002151 107.0908 253.0573 15.37519143 43693
RS32S (SXC3-212 MONITO*)
1 53374U 22096E   23142.13768138  .00036407  00000+0  10124-2 0  9999
2 53374  97.4139  48.0792 0002092 123.1527 236.9918 15.36757466 43680
RS34S (SXC3-218 KUZBAS*)
1 53375U 22096F   23142.19275896  .00030565  00000+0  89916-3 0  9995
2 53375  97.4165  47.8899 0002029 122.7950 237.3489 15.35029973 43671
RS23S (SXC3-21 UTMN)    
1 53376U 22096G   23142.15878125  .00031827  00000+0  92146-3 0  9997
2 53376  97.4158  47.9298 0002034 113.7086 246.4371 15.35524315 43675
RS28S (SXC3-214 MIET-A*)
1 53377U 22096H   23142.19629504  .00027389  00000+0  81426-3 0  9994
2 53377  97.4169  47.8908 0001945 124.9018 235.2408 15.34720138 43671
RS26S (KAI-1)           
1 53378U 22096J   23142.14666458  .00023599  00000+0  73194-3 0  9991
2 53378  97.4183  47.6633 0001988 123.8231 236.3201 15.33406756 43650
RS19S (SXC3-219 ISOI)   
1 53381U 22096M   23142.15734222  .00027106  00000+0  78639-3 0  9998
2 53381  97.4158  48.0797 0005061 129.5199 230.6492 15.35482591 43689
RS21S (CUBESX-HSE-2)    
1 53383U 22096P   23142.13708040  .00030550  00000+0  87522-3 0  9995
2 53383  97.4163  48.1169 0005513 131.3104 228.8615 15.35850869 43683
RS30S (SXC3-217 SIREN)  
1 53384U 22096Q   23142.14452849  .00022500  00000+0  67388-3 0  9994
2 53384  97.4174  47.9644 0005472 129.9056 230.2669 15.34513425 43672
RS20S (GEOSCAN-EDELVEIS)
1 53385U 22096R   23142.17431112  .00039638  00000+0  10245-2 0  9997
2 53385  97.4153  48.6582 0005897 128.5517 231.6257 15.38988226 43753
RS33S (SXC3-215 VIZARD) 
1 53386U 22096S   23142.14683549  .00051491  00000+0  11950-2 0  9993
2 53386  97.4151  49.1492 0006648 128.5762 231.6081 15.42194909 43774
CAS-5A (FO-118)         
1 54684U 22167C   23142.16388905  .00014405  00000+0  80557-3 0  9998
2 54684  97.5597 279.9367 0014608  68.6283 291.6506 15.13489453 24745
